{"type": "FeatureCollection", "features": [ {"type": "Feature", "properties": {"norad_id": 43108, "name": "BEIDOU-3 M8 (C28)", "group": "beidou", "lat": -4.074460419642316, "lon": -54.391272129257686, "alt_km": 21526.10214258565, "timestamp": "2025-12-19T22:41:52.656942+00:00", "meta": {"OBJECT_NAME": "BEIDOU-3 M8 (C28)", "OBJECT_ID": "2018-003B", "EPOCH": "2025-12-19T09:59:25.031616", "MEAN_MOTION": 1.86231091, "ECCENTRICITY": 0.0004569, "INCLINATION": 54.4835, "RA_OF_ASC_NODE": 308.5648, "ARG_OF_PERICENTER": 277.2174, "MEAN_ANOMALY": 82.7201, "EPHEMERIS_TYPE": 0, "CLASSIFICATION_TYPE": "U", "NORAD_CAT_ID": 43108, "ELEMENT_SET_NO": 999, "REV_AT_EPOCH": 5401, "BSTAR": 0, "MEAN_MOTION_DOT": -7.7e-07, "MEAN_MOTION_DDOT": 0}, "tle": {"line1": "1 43108U 18003B   25353.41626194 -.00000077  00000+0  00000+0 0  9992", "line2": "2 43108  54.4835 308.5648 0004569 277.2174  82.7201  1.86231091 54016"}}, "geometry": {"type": "Point", "coordinates": [-54.391272129257686, -4.074460419642316]}}, {"type": "Feature", "properties": {"norad_id": 43207, "name": "BEIDOU-3 M4 (C22)", "group": "beidou", "lat": 45.45742088253079, "lon": 111.31450391001131, "alt_km": 21515.529680870015, "timestamp": "2025-12-19T22:41:52.656953+00:00", "meta": {"OBJECT_NAME": "BEIDOU-3 M4 (C22)", "OBJECT_ID": "2018-018A", "EPOCH": "2025-12-18T05:56:14.155584", "MEAN_MOTION": 1.86231297, "ECCENTRICITY": 0.0004163, "INCLINATION": 56.4903, "RA_OF_ASC_NODE": 69.1221, "ARG_OF_PERICENTER": 6.0826, "MEAN_ANOMALY": 353.9513, "EPHEMERIS_TYPE": 0, "CLASSIFICATION_TYPE": "U", "NORAD_CAT_ID": 43207, "ELEMENT_SET_NO": 999, "REV_AT_EPOCH": 5337, "BSTAR": 0, "MEAN_MOTION_DOT": -6.5e-07, "MEAN_MOTION_DDOT": 0}, "tle": {"line1": "1 43207U 18018A   25352.24738606 -.00000065  00000+0  00000+0 0  9997", "line2": "2 43207  56.4903  69.1221 0004163   6.0826 353.9513  1.86231297 53378"}}, "geometry": {"type": "Point", "coordinates": [111.31450391001131, 45.45742088253079]}}, {"type": "Feature", "properties": {"norad_id": 43208, "name": "BEIDOU-3 M3 (C21)", "group": "beidou", "lat": 11.704207443076495, "lon": 76.96334658595852, "alt_km": 21517.061432698054, "timestamp": "2025-12-19T22:41:52.656965+00:00", "meta": {"OBJECT_NAME": "BEIDOU-3 M3 (C21)", "OBJECT_ID": "2018-018B", "EPOCH": "2025-12-19T09:18:26.987040", "MEAN_MOTION": 1.8623146, "ECCENTRICITY": 0.0007021, "INCLINATION": 56.4904, "RA_OF_ASC_NODE": 69.0885, "ARG_OF_PERICENTER": 313.7803, "MEAN_ANOMALY": 46.1968, "EPHEMERIS_TYPE": 0, "CLASSIFICATION_TYPE": "U", "NORAD_CAT_ID": 43208, "ELEMENT_SET_NO": 999, "REV_AT_EPOCH": 5339, "BSTAR": 0, "MEAN_MOTION_DOT": -5.3e-07, "MEAN_MOTION_DDOT": 0}, "tle": {"line1": "1 43208U 18018B   25353.38781235 -.00000053  00000+0  00000+0 0  9997", "line2": "2 43208  56.4904  69.0885 0007021 313.7803  46.1968  1.86231460 53393"}}, "geometry": {"type": "Point", "coordinates": [76.96334658595852, 11.704207443076495]}}, {"type": "Feature", "properties": {"norad_id": 43245, "name": "BEIDOU-3 M9 (C29)", "group": "beidou", "lat": -37.90161661983018, "lon": 160.11120755317003, "alt_km": 21530.822171492495, "timestamp": "2025-12-19T22:41:52.656991+00:00", "meta": {"OBJECT_NAME": "BEIDOU-3 M9 (C29)", "OBJECT_ID": "2018-029A", "EPOCH": "2025-12-19T01:36:36.481824", "MEAN_MOTION": 1.86228424, "ECCENTRICITY": 0.0001574, "INCLINATION": 54.36, "RA_OF_ASC_NODE": 306.2474, "ARG_OF_PERICENTER": 291.2966, "MEAN_ANOMALY": 68.6763, "EPHEMERIS_TYPE": 0, "CLASSIFICATION_TYPE": "U", "NORAD_CAT_ID": 43245, "ELEMENT_SET_NO": 999, "REV_AT_EPOCH": 5254, "BSTAR": 0, "MEAN_MOTION_DOT": -7.8e-07, "MEAN_MOTION_DDOT": 0}, "tle": {"line1": "1 43245U 18029A   25353.06708891 -.00000078  00000+0  00000+0 0  9999", "line2": "2 43245  54.3600 306.2474 0001574 291.2966  68.6763  1.86228424 52545"}}, "geometry": {"type": "Point", "coordinates": [160.11120755317003, -37.90161661983018]}}, {"type": "Feature", "properties": {"norad_id": 43246, "name": "BEIDOU-3 M10 (C30)", "group": "beidou", "lat": -54.29002640500672, "lon": -139.50828510765274, "alt_km": 21534.26021300912, "timestamp": "2025-12-19T22:41:52.657005+00:00", "meta": {"OBJECT_NAME": "BEIDOU-3 M10 (C30)", "OBJECT_ID": "2018-029B", "EPOCH": "2025-12-17T09:23:40.675200", "MEAN_MOTION": 1.8622912, "ECCENTRICITY": 0.00041993, "INCLINATION": 54.3586, "RA_OF_ASC_NODE": 306.3321, "ARG_OF_PERICENTER": 3.5987, "MEAN_ANOMALY": 356.3911, "EPHEMERIS_TYPE": 0, "CLASSIFICATION_TYPE": "U", "NORAD_CAT_ID": 43246, "ELEMENT_SET_NO": 999, "REV_AT_EPOCH": 5249, "BSTAR": 0, "MEAN_MOTION_DOT": -9e-07, "MEAN_MOTION_DDOT": 0}, "tle": {"line1": "1 43246U 18029B   25351.39144300 -.00000090  00000+0  00000+0 0  9997", "line2": "2 43246  54.3586 306.3321 0004199   3.5987 356.3911  1.86229120 52494"}}, "geometry": {"type": "Point", "coordinates": [-139.50828510765274, -54.29002640500672]}}, {"type": "Feature", "properties": {"norad_id": 43539, "name": "BEIDOU-2 IGSO-7 (C16)", "group": "beidou", "lat": 12.906005208253713, "lon": 173.78821862801027, "alt_km": 36089.78103667197, "timestamp": "2025-12-19T22:41:52.657018+00:00", "meta": {"OBJECT_NAME": "BEIDOU-2 IGSO-7 (C16)", "OBJECT_ID": "2018-057A", "EPOCH": "2025-12-15T07:47:07.120608", "MEAN_MOTION": 1.00256546, "ECCENTRICITY": 0.00926218, "INCLINATION": 55.1766, "RA_OF_ASC_NODE": 164.6485, "ARG_OF_PERICENTER": 235.2644, "MEAN_ANOMALY": 271.8458, "EPHEMERIS_TYPE": 0, "CLASSIFICATION_TYPE": "U", "NORAD_CAT_ID": 43539, "ELEMENT_SET_NO": 999, "REV_AT_EPOCH": 2728, "BSTAR": 0, "MEAN_MOTION_DOT": -2.3e-07, "MEAN_MOTION_DDOT": 0}, "tle": {"line1": "1 43539U 18057A   25349.32438797 -.00000023  00000+0  00000+0 0  9995", "line2": "2 43539  55.1766 164.6485 0092621 235.2644 271.8458  1.00256546 27289"}}, "geometry": {"type": "Point", "coordinates": [173.78821862801027, 12.906005208253713]}}, {"type": "Feature", "properties": {"norad_id": 43581, "name": "BEIDOU-3 M5 (C23)", "group": "beidou", "lat": 43.381116363027964, "lon": -34.84839404362919, "alt_km": 21526.30179043108, "timestamp": "2025-12-19T22:41:52.657031+00:00", "meta": {"OBJECT_NAME": "BEIDOU-3 M5 (C23)", "OBJECT_ID": "2018-062A", "EPOCH": "2025-12-17T01:53:59.361792", "MEAN_MOTION": 1.86228923, "ECCENTRICITY": 0.00020674, "INCLINATION": 54.0895, "RA_OF_ASC_NODE": 188.4955, "ARG_OF_PERICENTER": 356.8892, "MEAN_ANOMALY": 3.1782, "EPHEMERIS_TYPE": 0, "CLASSIFICATION_TYPE": "U", "NORAD_CAT_ID": 43581, "ELEMENT_SET_NO": 999, "REV_AT_EPOCH": 5024, "BSTAR": 0, "MEAN_MOTION_DOT": 1.14e-06, "MEAN_MOTION_DDOT": 0}, "tle": {"line1": "1 43581U 18062A   25351.07915928  .00000114  00000+0  00000+0 0  9999", "line2": "2 43581  54.0895 188.4955 0002067 356.8892   3.1782  1.86228923 50243"}}, "geometry": {"type": "Point", "coordinates": [-34.84839404362919, 43.381116363027964]}}, {"type": "Feature", "properties": {"norad_id": 43582, "name": "BEIDOU-3 M6 (C24)", "group": "beidou", "lat": -26.81799527054728, "lon": 29.89602544927657, "alt_km": 21552.86029975437, "timestamp": "2025-12-19T22:41:52.657043+00:00", "meta": {"OBJECT_NAME": "BEIDOU-3 M6 (C24)", "OBJECT_ID": "2018-062B", "EPOCH": "2025-12-19T02:09:37.044576", "MEAN_MOTION": 1.86229981, "ECCENTRICITY": 0.0007838, "INCLINATION": 54.0893, "RA_OF_ASC_NODE": 188.4162, "ARG_OF_PERICENTER": 47.7681, "MEAN_ANOMALY": 312.3611, "EPHEMERIS_TYPE": 0, "CLASSIFICATION_TYPE": "U", "NORAD_CAT_ID": 43582, "ELEMENT_SET_NO": 999, "REV_AT_EPOCH": 5028, "BSTAR": 0, "MEAN_MOTION_DOT": 1.04e-06, "MEAN_MOTION_DDOT": 0}, "tle": {"line1": "1 43582U 18062B   25353.09001209  .00000104  00000+0  00000+0 0  9991", "line2": "2 43582  54.0893 188.4162 0007838  47.7681 312.3611  1.86229981 50280"}}, "geometry": {"type": "Point", "coordinates": [29.89602544927657, -26.81799527054728]}}, {"type": "Feature", "properties": {"norad_id": 43602, "name": "BEIDOU-3 M12 (C26)", "group": "beidou", "lat": -51.66354331010899, "lon": 73.1539230611574, "alt_km": 21555.32943745265, "timestamp": "2025-12-19T22:41:52.657055+00:00", "meta": {"OBJECT_NAME": "BEIDOU-3 M12 (C26)", "OBJECT_ID": "2018-067A", "EPOCH": "2025-12-19T00:40:11.391168", "MEAN_MOTION": 1.86227821, "ECCENTRICITY": 0.0009232, "INCLINATION": 54.1834, "RA_OF_ASC_NODE": 187.1497, "ARG_OF_PERICENTER": 41.1657, "MEAN_ANOMALY": 318.9642, "EPHEMERIS_TYPE": 0, "CLASSIFICATION_TYPE": "U", "NORAD_CAT_ID": 43602, "ELEMENT_SET_NO": 999, "REV_AT_EPOCH": 4976, "BSTAR": 0, "MEAN_MOTION_DOT": 1.04e-06, "MEAN_MOTION_DDOT": 0}, "tle": {"line1": "1 43602U 18067A   25353.02790962  .00000104  00000+0  00000+0 0  9993", "line2": "2 43602  54.1834 187.1497 0009232  41.1657 318.9642  1.86227821 49765"}}, "geometry": {"type": "Point", "coordinates": [73.1539230611574, -51.66354331010899]}}, {"type": "Feature", "properties": {"norad_id": 43603, "name": "BEIDOU-3 M11 (C25)", "group": "beidou", "lat": 11.862331221056538, "lon": -1.6430175753947458, "alt_km": 21536.848898934557, "timestamp": "2025-12-19T22:41:52.657066+00:00", "meta": {"OBJECT_NAME": "BEIDOU-3 M11 (C25)", "OBJECT_ID": "2018-067B", "EPOCH": "2025-12-19T03:53:54.353760", "MEAN_MOTION": 1.86227328, "ECCENTRICITY": 0.0005641, "INCLINATION": 54.1805, "RA_OF_ASC_NODE": 187.1091, "ARG_OF_PERICENTER": 36.9516, "MEAN_ANOMALY": 323.1468, "EPHEMERIS_TYPE": 0, "CLASSIFICATION_TYPE": "U", "NORAD_CAT_ID": 43603, "ELEMENT_SET_NO": 999, "REV_AT_EPOCH": 4979, "BSTAR": 0, "MEAN_MOTION_DOT": 1.03e-06, "MEAN_MOTION_DDOT": 0}, "tle": {"line1": "1 43603U 18067B   25353.16243465  .00000103  00000+0  00000+0 0  9999", "line2": "2 43603  54.1805 187.1091 0005641  36.9516 323.1468  1.86227328 49799"}}, "geometry": {"type": "Point", "coordinates": [-1.6430175753947458, 11.862331221056538]}}]}